[
    {
        "Altitude(m)": 575113.9418741614,
        "Argument of Periapsis(deg)": 0.0,
        "Eccentricity": 0.0,
        "Inclination(deg)": 97.0,
        "Latitude(deg)": -31.04271435814487,
        "Longitude(deg)": 165.81575418508712,
        "Mean Anomaly(deg)": 211.03450000000004,
        "RAAN(deg)": 90.0,
        "Satellite Name": "Starlink Shell 3 1792",
        "Satellite Number": 1792,
        "Semi-Major Axis(m)": 6938478.169268562,
        "Time(s)": 0
    },
    {
        "Altitude(m)": 575357.5337366272,
        "Argument of Periapsis(deg)": -0.0003965466804030246,
        "Eccentricity": 0.0,
        "Inclination(deg)": 97.0,
        "Latitude(deg)": -31.662533948499934,
        "Longitude(deg)": 165.66999974069694,
        "Mean Anomaly(deg)": 211.65997619770505,
        "RAAN(deg)": 90.00010433427403,
        "Satellite Name": "Starlink Shell 3 1792",
        "Satellite Number": 1792,
        "Semi-Major Axis(m)": 6938478.169268562,
        "Time(s)": 10
    },
    {
        "Altitude(m)": 575602.5412006163,
        "Argument of Periapsis(deg)": -0.0007930933608060492,
        "Eccentricity": 0.0,
        "Inclination(deg)": 97.0,
        "Latitude(deg)": -32.28217921468482,
        "Longitude(deg)": 165.52286246709454,
        "Mean Anomaly(deg)": 212.2854523954101,
        "RAAN(deg)": 90.00020866854803,
        "Satellite Name": "Starlink Shell 3 1792",
        "Satellite Number": 1792,
        "Semi-Major Axis(m)": 6938478.169268562,
        "Time(s)": 20
    },
    {
        "Altitude(m)": 575848.8716391877,
        "Argument of Periapsis(deg)": -0.001189640041209074,
        "Eccentricity": 0.0,
        "Inclination(deg)": 97.0,
        "Latitude(deg)": -32.901646223131415,
        "Longitude(deg)": 165.3742896102543,
        "Mean Anomaly(deg)": 212.9109285931152,
        "RAAN(deg)": 90.00031300282203,
        "Satellite Name": "Starlink Shell 3 1792",
        "Satellite Number": 1792,
        "Semi-Major Axis(m)": 6938478.169268562,
        "Time(s)": 30
    },
    {
        "Altitude(m)": 576096.4316609657,
        "Argument of Periapsis(deg)": -0.0015861867216120985,
        "Eccentricity": 0.0,
        "Inclination(deg)": 97.0,
        "Latitude(deg)": -33.520930950053874,
        "Longitude(deg)": 165.22422682804998,
        "Mean Anomaly(deg)": 213.53640479082017,
        "RAAN(deg)": 90.00041733709604,
        "Satellite Name": "Starlink Shell 3 1792",
        "Satellite Number": 1792,
        "Semi-Major Axis(m)": 6938478.169268562,
        "Time(s)": 40
    },
    {
        "Altitude(m)": 576345.1271527659,
        "Argument of Periapsis(deg)": -0.0019827334020151234,
        "Eccentricity": 0.0,
        "Inclination(deg)": 97.0,
        "Latitude(deg)": -34.1400292744121,
        "Longitude(deg)": 165.072617063995,
        "Mean Anomaly(deg)": 214.16188098852524,
        "RAAN(deg)": 90.00052167137004,
        "Satellite Name": "Starlink Shell 3 1792",
        "Satellite Number": 1792,
        "Semi-Major Axis(m)": 6938478.169268562,
        "Time(s)": 50
    },
    {
        "Altitude(m)": 576594.8633224985,
        "Argument of Periapsis(deg)": -0.002379280082418148,
        "Eccentricity": 0.0,
        "Inclination(deg)": 97.0,
        "Latitude(deg)": -34.75893697037867,
        "Longitude(deg)": 164.91940092628312,
        "Mean Anomaly(deg)": 214.78735718623028,
        "RAAN(deg)": 90.00062600564407,
        "Satellite Name": "Starlink Shell 3 1792",
        "Satellite Number": 1792,
        "Semi-Major Axis(m)": 6938478.169268562,
        "Time(s)": 60
    },
    {
        "Altitude(m)": 576845.5447423971,
        "Argument of Periapsis(deg)": -0.002775826762821173,
        "Eccentricity": 0.0,
        "Inclination(deg)": 97.0,
        "Latitude(deg)": -35.37764969927303,
        "Longitude(deg)": 164.76451705866987,
        "Mean Anomaly(deg)": 215.41283338393524,
        "RAAN(deg)": 90.00073033991806,
        "Satellite Name": "Starlink Shell 3 1792",
        "Satellite Number": 1792,
        "Semi-Major Axis(m)": 6938478.169268562,
        "Time(s)": 70
    },
    {
        "Altitude(m)": 577097.0753924804,
        "Argument of Periapsis(deg)": -0.003172373443224197,
        "Eccentricity": 0.0,
        "Inclination(deg)": 97.0,
        "Latitude(deg)": -35.99616300091778,
        "Longitude(deg)": 164.60790098968698,
        "Mean Anomaly(deg)": 216.03830958164036,
        "RAAN(deg)": 90.00083467419208,
        "Satellite Name": "Starlink Shell 3 1792",
        "Satellite Number": 1792,
        "Semi-Major Axis(m)": 6938478.169268562,
        "Time(s)": 80
    },
    {
        "Altitude(m)": 577349.3587042674,
        "Argument of Periapsis(deg)": -0.0035689201236272223,
        "Eccentricity": 0.0,
        "Inclination(deg)": 97.0,
        "Latitude(deg)": -36.614472284377634,
        "Longitude(deg)": 164.44948548524005,
        "Mean Anomaly(deg)": 216.6637857793454,
        "RAAN(deg)": 90.00093900846608,
        "Satellite Name": "Starlink Shell 3 1792",
        "Satellite Number": 1792,
        "Semi-Major Axis(m)": 6938478.169268562,
        "Time(s)": 90
    },
    {
        "Altitude(m)": 577602.2976047025,
        "Argument of Periapsis(deg)": -0.003965466804030247,
        "Eccentricity": 0.0,
        "Inclination(deg)": 97.0,
        "Latitude(deg)": -37.2325728180314,
        "Longitude(deg)": 164.28920089096314,
        "Mean Anomaly(deg)": 217.28926197705042,
        "RAAN(deg)": 90.00104334274009,
        "Satellite Name": "Starlink Shell 3 1792",
        "Satellite Number": 1792,
        "Semi-Major Axis(m)": 6938478.169268562,
        "Time(s)": 100
    },
    {
        "Altitude(m)": 577855.7945602654,
        "Argument of Periapsis(deg)": -0.004362013484433271,
        "Eccentricity": 0.0,
        "Inclination(deg)": 97.0,
        "Latitude(deg)": -37.85045971892133,
        "Longitude(deg)": 164.12697395063216,
        "Mean Anomaly(deg)": 217.9147381747555,
        "RAAN(deg)": 90.0011476770141,
        "Satellite Name": "Starlink Shell 3 1792",
        "Satellite Number": 1792,
        "Semi-Major Axis(m)": 6938478.169268562,
        "Time(s)": 110
    },
    {
        "Altitude(m)": 578109.7516212738,
        "Argument of Periapsis(deg)": -0.004758560164836296,
        "Eccentricity": 0.0,
        "Inclination(deg)": 97.0,
        "Latitude(deg)": -38.468127941325534,
        "Longitude(deg)": 163.9627281254841,
        "Mean Anomaly(deg)": 218.5402143724605,
        "RAAN(deg)": 90.0012520112881,
        "Satellite Name": "Starlink Shell 3 1792",
        "Satellite Number": 1792,
        "Semi-Major Axis(m)": 6938478.169268562,
        "Time(s)": 120
    },
    {
        "Altitude(m)": 578364.070466333,
        "Argument of Periapsis(deg)": -0.005155106845239321,
        "Eccentricity": 0.0,
        "Inclination(deg)": 97.0,
        "Latitude(deg)": -39.08557226449097,
        "Longitude(deg)": 163.79638390058545,
        "Mean Anomaly(deg)": 219.16569057016557,
        "RAAN(deg)": 90.00135634556213,
        "Satellite Name": "Starlink Shell 3 1792",
        "Satellite Number": 1792,
        "Semi-Major Axis(m)": 6938478.169268562,
        "Time(s)": 130
    },
    {
        "Altitude(m)": 578618.6524468977,
        "Argument of Periapsis(deg)": -0.005551653525642346,
        "Eccentricity": 0.0,
        "Inclination(deg)": 97.0,
        "Latitude(deg)": -39.70278727945236,
        "Longitude(deg)": 163.62785756430333,
        "Mean Anomaly(deg)": 219.79116676787064,
        "RAAN(deg)": 90.00146067983613,
        "Satellite Name": "Starlink Shell 3 1792",
        "Satellite Number": 1792,
        "Semi-Major Axis(m)": 6938478.169268562,
        "Time(s)": 140
    },
    {
        "Altitude(m)": 578873.3986319611,
        "Argument of Periapsis(deg)": -0.005948200206045371,
        "Eccentricity": 0.0,
        "Inclination(deg)": 97.0,
        "Latitude(deg)": -40.319767374867695,
        "Longitude(deg)": 163.45706148544625,
        "Mean Anomaly(deg)": 220.41664296557568,
        "RAAN(deg)": 90.00156501411013,
        "Satellite Name": "Starlink Shell 3 1792",
        "Satellite Number": 1792,
        "Semi-Major Axis(m)": 6938478.169268562,
        "Time(s)": 150
    },
    {
        "Altitude(m)": 579128.2098528194,
        "Argument of Periapsis(deg)": -0.006344746886448394,
        "Eccentricity": 0.0,
        "Inclination(deg)": 97.0,
        "Latitude(deg)": -40.93650672178559,
        "Longitude(deg)": 163.28390437391357,
        "Mean Anomaly(deg)": 221.04211916328074,
        "RAAN(deg)": 90.00166934838414,
        "Satellite Name": "Starlink Shell 3 1792",
        "Satellite Number": 1792,
        "Semi-Major Axis(m)": 6938478.169268562,
        "Time(s)": 160
    },
    {
        "Altitude(m)": 579382.986747894,
        "Argument of Periapsis(deg)": -0.00674129356685142,
        "Eccentricity": 0.0,
        "Inclination(deg)": 97.0,
        "Latitude(deg)": -41.55299925724839,
        "Longitude(deg)": 163.10829001056499,
        "Mean Anomaly(deg)": 221.66759536098579,
        "RAAN(deg)": 90.00177368265814,
        "Satellite Name": "Starlink Shell 3 1792",
        "Satellite Number": 1792,
        "Semi-Major Axis(m)": 6938478.169268562,
        "Time(s)": 170
    },
    {
        "Altitude(m)": 579637.6298076124,
        "Argument of Periapsis(deg)": -0.007137840247254445,
        "Eccentricity": 0.0,
        "Inclination(deg)": 97.0,
        "Latitude(deg)": -42.16923866663749,
        "Longitude(deg)": 162.9301174705025,
        "Mean Anomaly(deg)": 222.29307155869074,
        "RAAN(deg)": 90.00187801693217,
        "Satellite Name": "Starlink Shell 3 1792",
        "Satellite Number": 1792,
        "Semi-Major Axis(m)": 6938478.169268562,
        "Time(s)": 180
    }
]